YAMAL 601               
1 44307U 19031A   26094.54249763  .00000000  00000+0  00000+0 0  9991
2 44307   0.0179 206.5024 0002570 176.4908  54.1716  1.00272171 25175
AT&T T-16               
1 44333U 19034A   26095.58236693 -.00000114  00000+0  00000+0 0  9993
2 44333   0.0248 106.5131 0001032  71.7144 124.4517  1.00272177 24906
EUTELSAT 7C             
1 44334U 19034B   26095.81766892  .00000050  00000+0  00000+0 0  9997
2 44334   0.0655 184.0113 0003442 179.1600 132.3034  1.00273072  6117
BEIDOU-3 IGSO-2         
1 44337U 19035A   26086.82285878 -.00000161  00000+0  00000+0 0  9996
2 44337  55.2326 159.5780 0039045 213.6954 226.2541  1.00291912 24858
MERIDIAN 8              
1 44453U 19046A   26095.43991113 -.00000091  00000+0  00000+0 0  9992
2 44453  63.0789  60.0844 7053612 274.6668  14.9987  2.00616544 48884
COSMOS 2539             
1 44457U 19048A   26095.91961747  .00000083  00000+0  00000+0 0  9991
2 44457   0.0214 120.7235 0000359  34.0272  22.5204  1.00270314 24502
BREEZE-M R/B            
1 44458U 19048B   26095.71088128 -.00000188  00000+0  00000+0 0  9990
2 44458   6.6852  73.6064 0734967 128.3109 238.6368  0.90283846 21908
EDRS-C                  
1 44475U 19049A   26095.84455384 -.00000260  00000+0  00000+0 0  9997
2 44475   0.0420 110.1432 0001401 277.3833 253.1531  1.00271079 24488
INTELSAT 39 (IS-39)     
1 44476U 19049B   26095.87338844  .00000035  00000+0  00000+0 0  9991
2 44476   0.0052 269.0256 0000378 248.0484  53.4551  1.00271517 24409
AMOS-17                 
1 44479U 19050A   26095.81966227  .00000111  00000+0  00000+0 0  9997
2 44479   0.0185 280.3741 0001537 108.7469 117.0578  1.00273146 24469
AEHF-5 (USA 292)        
1 44481U 19051A   26095.88330534 -.00000257  00000+0  00000+0 0  9996
2 44481   1.5264 330.8931 0070464   3.3555 271.0037  1.00271094 24538
CZ-3C DEB               
1 44527U 10057BM  26091.51846020 -.00000032  00000+0  15929-3 0  9993
2 44527  20.2104  90.3229 7183089 176.4355 195.2887  2.23731350 76699
COSMOS 2541             
1 44552U 19065A   26093.00472061  .00000066  00000+0  00000+0 0  9991
2 44552  62.7096 163.9408 6482205 272.1760  20.4146  2.00623375 47719
FREGAT R/B              
1 44553U 19065B   26088.90500191  .00001281  00000+0  00000+0 0  9991
2 44553  63.3397 161.3968 6690924 261.3079  23.5188  2.01539187 47905
COSMOS 1897 DEB         
1 44572U 87096G   26095.22203275 -.00000046  00000+0  00000+0 0  9996
2 44572  10.9708 326.7999 0021036 299.2439 247.4255  1.00483629 70250
ARIANE 44LP DEB         
1 44573U 92060J   26095.55779840 -.00000750  00000+0 -76361-2 0  9995
2 44573   7.1706 356.3918 7181011 344.2563 215.8024  2.23469956 97911
LUCH DEB                
1 44582U 94082G   26095.55658506 -.00000306  00000+0  00000+0 0  9996
2 44582  14.6022 354.5953 0018675  89.4830  78.5145  1.00689681 45517
SL-12 DEB               
1 44588U 99027E   26094.58466098 -.00000079  00000+0  00000+0 0  9998
2 44588   7.2102 123.6189 3215330 158.6815 209.5101  1.46007490 65970
EUTELSAT 5 WEST B       
1 44624U 19067A   26095.81532892 -.00000040  00000+0  00000+0 0  9996
2 44624   0.0662  13.2924 0003469  12.4354  96.8962  1.00272960 23718
BREEZE-M R/B            
1 44626U 19067C   26095.30071148 -.00000192  00000+0  00000+0 0  9992
2 44626  23.1714  60.9740 6502416  11.7058 357.6865  0.93850674 20413
TJS-4                   
1 44637U 19070A   26095.91136294 -.00000168  00000+0  00000+0 0  9992
2 44637   0.0351  62.4683 0002503 350.5783 192.7786  1.00274082 23813
ATLAS 5 CENTAUR DEB     
1 44661U 18079X   26095.39993427 -.00000097  00000+0  00000+0 0  9999
2 44661  12.9331  67.0348 4630656 248.5003  57.0752  1.72653248 47344
ATLAS 5 CENTAUR DEB     
1 44665U 18079AB  26095.46693764 -.00000084  00000+0  00000+0 0  9998
2 44665  12.6040  78.5525 4655412 226.0015  84.7946  1.68623054 42149
ATLAS 5 CENTAUR DEB     
1 44673U 18079AK  26094.73416900 -.00000120  00000+0  00000+0 0  9992
2 44673  13.2943  49.4802 4706651 283.6804  29.7895  1.77547427 48562
ATLAS 5 CENTAUR DEB     
1 44679U 18079AR  26095.08933076 -.00000124  00000+0  00000+0 0  9999
2 44679  13.3560  45.1331 4692110 292.3029  25.3706  1.79403223 45369
ATLAS 5 CENTAUR DEB     
1 44680U 18079AS  26093.07166043 -.00000111  00000+0  00000+0 0  9996
2 44680  13.2535  54.8419 4691786 271.7675  37.1998  1.75589201 44148
ATLAS 5 CENTAUR DEB     
1 44685U 18079AX  26094.97311699 -.00000084  00000+0  00000+0 0  9999
2 44685  12.5130  79.7917 4563385 225.1376  87.3341  1.69261608 42260
ATLAS 5 CENTAUR DEB     
1 44686U 18079AY  26094.71297766 -.00000087  00000+0  00000+0 0  9993
2 44686  12.5452  78.6395 4656705 228.2976  81.3757  1.69097936 42339
ATLAS 5 CENTAUR DEB     
1 44693U 18079BF  26094.53350410 -.00000121  00000+0  00000+0 0  9996
2 44693  13.4225  46.8592 4682108 287.0528  28.1540  1.78463490 45562
ATLAS 5 CENTAUR DEB     
1 44694U 18079BG  26093.87883410 -.00000121  00000+0  00000+0 0  9994
2 44694  13.5458  45.3720 4741465 287.2821  27.5677  1.77433824 45245
BEIDOU-3 IGSO-3         
1 44709U 19073A   26094.91715419 -.00000178  00000+0  00000+0 0  9997
2 44709  54.9277 281.6864 0041424 188.4946 171.3751  1.00259377 23723
TIBA-1                  
1 44800U 19080A   26095.82330229  .00000158  00000+0  00000+0 0  9997
2 44800   0.0538  10.7574 0001972   4.8641 150.3669  1.00271357 23337
INMARSAT GX5            
1 44801U 19080B   26095.83203798  .00000077  00000+0  00000+0 0  9999
2 44801   0.0610  37.6921 0002014 352.8961 114.0751  1.00273414  6068
ATLAS 5 CENTAUR DEB     
1 44845U 14055CD  26095.51764507 -.00000083  00000+0  00000+0 0  9997
2 44845  20.3357 134.8601 5004106 179.6247 181.0099  1.84918422 43084
JCSAT-18 (KACIFIC 1)    
1 44868U 19091A   26095.84419822 -.00000199  00000+0  00000+0 0  9998
2 44868   0.0379 350.1910 0000308  87.0360 210.8227  1.00270166 23285
ELEKTRO-L 3             
1 44903U 19095A   26095.86711586 -.00000094  00000+0  00000+0 0  9990
2 44903   0.0763  62.0060 0001386 309.0980 211.1585  1.00272425 22986
SHIJIAN-20 (SJ-20)      
1 44910U 19097A   26095.80760784  .00000115  00000+0  00000+0 0  9991
2 44910   4.7328  75.9320 0003092  16.5476  86.4794  1.00088237 22970
TJS-5                   
1 44978U 20002A   26095.85228333 -.00000340  00000+0  00000+0 0  9998
2 44978   0.1959 269.7805 0005541 125.2861 213.4130  1.00270031 22973
GSAT-30                 
1 45026U 20005A   26095.88011102 -.00000163  00000+0  00000+0 0  9996
2 45026   0.0738  82.6452 0002180 348.9772 162.3824  1.00272490 22785
EUTELSAT KONNECT        
1 45027U 20005B   26095.60377369  .00000051  00000+0  00000+0 0  9992
2 45027   0.0703  93.9139 0001233 222.1068 102.4577  1.00273016 23601
BLOCK DM-SL DEB         
1 45041U 19095C   26084.47768025 -.00000303  00000+0  00000+0 0  9992
2 45041   5.1489  74.3526 0435196   5.2923 355.2774  1.02993037 23472
JCSAT-17                
1 45245U 20013A   26095.73740240 -.00000316  00000+0  00000+0 0  9994
2 45245   5.3944 356.1559 0004423  17.3628 221.9617  1.00272074 22501
GEO-KOMPSAT-2B          
1 45246U 20013B   26095.84169384 -.00000342  00000+0  00000+0 0  9990
2 45246   0.0434 347.6157 0001184 354.8780 282.9128  1.00273121 22559
MERIDIAN 9              
1 45254U 20015A   26094.68876326 -.00000098  00000+0  00000+0 0  9991
2 45254  65.5025 326.8092 6882128 279.1527  14.7324  2.00602808 44817
FREGAT R/B              
1 45255U 20015B   26091.97897073 -.00000961  00000+0  00000+0 0  9992
2 45255  65.6583 321.1526 6921889 280.2030  14.1481  1.99850328 44635
BEIDOU-3 G2             
1 45344U 20017A   26095.90441778 -.00000138  00000+0  00000+0 0  9993
2 45344   2.7196  46.1612 0002873 338.5909 215.0832  1.00272127 22539
AEHF-6 (USA 298)        
1 45465U 20022B   26095.84351384 -.00000300  00000+0  00000+0 0  9990
2 45465   2.7080 300.2468 0047528  17.1576 318.0790  1.00268070 22285
ATLAS 5 CENTAUR DEB     
1 45471U 18079BT  26094.47926447 -.00000117  00000+0  00000+0 0  9998
2 45471  13.3041  50.7047 4664678 280.7832  31.8037  1.77790145 41401
ATLAS 5 CENTAUR DEB     
1 45473U 18079BV  26085.02046652 -.00000090  00000+0  00000+0 0  9992
2 45473  12.8424  74.5097 4579212 230.5308  79.2192  1.70626493 40292
ATLAS 5 CENTAUR DEB     
1 45474U 18079BW  26095.47715485 -.00000092  00000+0  00000+0 0  9992
2 45474  12.9779  67.9637 4473001 244.1069  63.7176  1.74190911 41721
COSMOS 2546             
1 45608U 20031A   26093.74934316 -.00000134  00000+0  00000+0 0  9993
2 45608  63.1570  76.1034 7049036 265.9348  18.1321  2.00624717 42971
FREGAT R/B              
1 45609U 20031B   26088.10101350  .00001365  00000+0  00000+0 0  9998
2 45609  63.5326  73.8771 7145343 258.2479  20.5570  2.01444198 43041
BEIDOU-3 G3             
1 45807U 20040A   26095.76688249 -.00000351  00000+0  00000+0 0  9990
2 45807   2.2698  67.2276 0004619 329.1984 184.2648  1.00269472 21343
APSTAR-6D               
1 45863U 20045A   26093.48976877 -.00000321  00000+0  00000+0 0  9998
2 45863   0.0470 103.0436 0002660 345.0952  53.9599  1.00266278 21115
KOREASAT 116            
1 45920U 20048A   26095.83926715 -.00000360  00000+0  00000+0 0  9995
2 45920   0.0114 180.8592 0001215 227.7605 203.8588  1.00271071 20914
EXPRESS 103             
1 45985U 20053A   26095.91442228 -.00000278  00000+0  00000+0 0  9991
2 45985   0.0196 258.1007 0000211  63.8937 297.9133  1.00269801 20926
EXPRESS 80              
1 45986U 20053B   26094.25138316 -.00000089  00000+0  00000+0 0  9998
2 45986   0.1257 265.9557 0126317 142.0367 313.0659  0.99608059 20905
BREEZE-M R/B            
1 45987U 20053C   26094.87185406 -.00000140  00000+0  00000+0 0  9997
2 45987   7.3256  79.4174 4347063  75.7007 327.8756  1.03580578 21483
BSAT-4B                 
1 46112U 20056A   26095.89032334 -.00000348  00000+0  00000+0 0  9995
2 46112   0.0768 109.3802 0002760 338.1490 177.0043  1.00270864 20667
